STARLINK-35278          
1 65902U 25224W   25304.25002315  .00172082  00000+0  30486-2 0  9991
2 65902  53.1600 254.3259 0001304  78.5398 215.8870 15.49176071  5071
STARLINK-35210          
1 65903U 25224X   25304.25002315 -.00010424  00000+0 -17974-3 0  9993
2 65903  53.1599 254.3303 0001373  99.4171 193.0418 15.49287078  5059
STARLINK-35348          
1 65904U 25224Y   25304.25002315  .00128445  00000+0  22892-2 0  9999
2 65904  53.1601 254.3340 0001229  79.2406 211.3516 15.49190433  5020
STARLINK-35380          
1 65905U 25224Z   25304.25002315  .00169709  00000+0  30081-2 0  9997
2 65905  53.1599 254.3233 0001436  96.2115 200.1373 15.49171575  5027
STARLINK-35385          
1 65906U 25224AA  25304.25002315 -.00016905  00000+0 -29673-3 0  9995
2 65906  53.1599 254.3147 0001315  91.2805 208.8469 15.49290764  5055
STARLINK-35347          
1 65907U 25224AB  25304.25002315  .00112549  00000+0  20096-2 0  9994
2 65907  53.1598 254.3101 0001201  79.5724 222.5015 15.49210897  5057
STARLINK-35329          
1 65908U 25224AC  25304.25002315 -.00013058  00000+0 -22727-3 0  9996
2 65908  53.1599 254.3183 0001471  73.0114 225.1981 15.49288659  5063
STARLINK-35387          
1 65909U 25224AD  25304.25002315 -.00023180  00000+0 -41020-3 0  9991
2 65909  53.1599 254.3059 0001525 102.0278 201.9314 15.49290657  5029
STARLINK-35523          
1 65910U 25225A   25304.25002315 -.02006541  00000+0 -30195-1 0  9997
2 65910  53.1595  49.5746 0000854  78.1425 256.3517 15.57822610  4594
STARLINK-35160          
1 65911U 25225B   25304.25002315 -.02008297  00000+0 -30222-1 0  9999
2 65911  53.1592  49.5711 0000831  78.1391 258.2692 15.57825217  4547
STARLINK-35508          
1 65912U 25225C   25304.25002315 -.02006323  00000+0 -30191-1 0  9993
2 65912  53.1598  49.5659 0000871  81.1342 257.1942 15.57822420  4548
STARLINK-35472          
1 65913U 25225D   25304.25002315 -.02005625  00000+0 -30178-1 0  9993
2 65913  53.1596  49.5621 0000827  76.5791 263.6634 15.57823817  4588
